1 53918U 22119AJ  22282.58334491  .00043068  00000-0  31006-3 0  9998
2 53918  53.2187 180.6269 0001068 101.8456 140.0184 15.73173520  1302